IRIDIUM 113             
1 42803U 17039A   26194.82216572  .00000009  00000+0 -38789-5 0  9991
2 42803  86.3988 311.0464 0002014  90.6247 269.5180 14.34217159475009
NORSAT 2                
1 42828U 17042D   26194.71707389  .00005457  00000+0  23896-3 0  9993
2 42828  97.4047   7.7475 0008325 324.0395  36.0280 15.22409796491773
TECHNOSAT               
1 42829U 17042E   26194.37805134  .00002037  00000+0  14687-3 0  9992
2 42829  97.4311 351.0449 0017599   9.3532 350.8019 15.05104462490648
FLYING LAPTOP           
1 42831U 17042G   26194.84706483  .00002410  00000+0  19107-3 0  9991
2 42831  97.4792 349.3759 0019757  36.8487 323.4091 15.01308694490454
WNISAT 1R               
1 42835U 17042L   26194.87634727  .00000538  00000+0  45611-4 0  9998
2 42835  97.4822 350.0454 0011035  68.9178 291.3225 15.01857109490516
LEMUR-2-GREENBERG       
1 42837U 17042N   26194.47946093  .00009474  00000+0  30775-3 0  9990
2 42837  97.3826  14.9999 0007161 266.6725  93.3697 15.32118737492416
LEMUR-2-FURIAUS         
1 42840U 17042R   26193.44556340  .00010642  00000+0  35675-3 0  9995
2 42840  97.3775  11.8672 0006239 340.6601  19.4403 15.31072029492076
CORVUS BC2              
1 42846U 17042X   26194.76536817  .00001364  00000+0  96345-4 0  9997
2 42846  97.4090 355.0880 0013579  27.8263 332.3689 15.06452530491062
CORVUS BC1              
1 42847U 17042Y   26194.69063245  .00001035  00000+0  73816-4 0  9993
2 42847  97.4116 355.8472 0011755   5.7954 354.3408 15.06615457491087
VRSS-2                  
1 42954U 17060A   26194.87072160  .00000776  00000+0  10578-3 0  9994
2 42954  97.6507 231.3942 0017577  17.9701 342.2130 14.81237517472407
MOHAMMED VI-A           
1 43005U 17070A   26194.83349411  .00000493  00000+0  77035-4 0  9993
2 43005  97.9556 266.7964 0001205  94.9725 265.1623 14.77101796467914
FENGYUN 3D              
1 43010U 17072A   26194.85725464 -.00000234  00000+0 -88609-4 0  9993
2 43010  99.0135 169.7634 0001616  16.7072 343.4157 14.19743445448779
NOAA 20 (JPSS-1)        
1 43013U 17073A   26194.85660101  .00000014  00000+0  27535-4 0  9998
2 43013  98.7773 134.0829 0001337 125.7481 234.3819 14.19516290448254
MAKERSAT 0              
1 43016U 17073D   26194.62405453  .00012247  00000+0  32412-3 0  9993
2 43016  97.4590  77.3600 0105364 177.8429 182.3290 15.32968226470516
RADFXSAT (FOX-1B)       
1 43017U 17073E   26194.59796664  .00003877  00000+0  17078-3 0  9997
2 43017  97.4670  61.2749 0148173 237.0562 121.6348 15.13047327469386
JILIN-1 04              
1 43022U 17074A   26194.80858965  .00008476  00000+0  19360-3 0  9997
2 43022  97.4879 305.1453 0005274 104.1043 256.0791 15.43106496478377
JILIN-1 05              
1 43023U 17074B   26194.86457821  .00005029  00000+0  15397-3 0  9997
2 43023  97.4884 301.3883 0006403 128.2844 231.8976 15.34272291478092
JILIN-1 06              
1 43024U 17074C   26194.84023177  .00003578  00000+0  11124-3 0  9990
2 43024  97.4809 298.3376 0008011 138.1847 222.0009 15.33986441477920
IRIDIUM 116             
1 43072U 17083C   26194.79679480  .00000116  00000+0  34346-4 0  9998
2 43072  86.3984 310.8778 0002427  99.0489 261.0982 14.34217419447980
IRIDIUM 130             
1 43073U 17083D   26194.83485433  .00000131  00000+0  39703-4 0  9996
2 43073  86.3992 311.1397 0002236 100.8684 259.2764 14.34217605447936
LKW-2                   
1 43080U 17084A   26194.83893662  .00003985  00000+0  15445-3 0  9998
2 43080  97.1182 233.3924 0003523 121.6865 238.4719 15.26678584475757
SUPERVIEW-1 03          
1 43099U 18002A   26194.81124826  .00010902  00000+0  26328-3 0  9995
2 43099  97.3138 279.6228 0047022  85.9536 274.7083 15.40181231472465
CARTOSAT-2F             
1 43111U 18004A   26194.81772493  .00001204  00000+0  60362-4 0  9993
2 43111  97.4783 254.1899 0002627 138.0769 222.0667 15.19262449471379
LKW-3                   
1 43146U 18006A   26194.83767213  .00011178  00000+0  32388-3 0  9996
2 43146  97.6626 356.4659 0002825 184.5833 175.5385 15.35739874472800
ASNARO-2                
1 43152U 18007A   26194.87142650  .00005102  00000+0  22375-3 0  9995
2 43152  97.3968 201.3817 0001872  93.4924 266.6526 15.22412722471474
JILIN-1 07              
1 43159U 18008E   26194.82144042  .00005347  00000+0  15892-3 0  9992
2 43159  97.1764 214.0460 0006869 333.9945  26.0953 15.35150226469082
JILIN-1 08              
1 43160U 18008F   26194.84044773  .00003632  00000+0  11271-3 0  9998
2 43160  97.1800 213.3509 0005476 357.9141   2.2078 15.34000730469030
S-NET D                 
1 43186U 18014G   26194.71804280  .00002527  00000+0  13164-3 0  9991
2 43186  97.5338  99.3442 0006342 291.3470  68.7086 15.16909870462789
